[{"OBJECT_NAME":"STARLINK-11453 [DTC]","OBJECT_ID":"2024-249C","EPOCH":"2026-03-09T07:45:15.676704","MEAN_MOTION":15.70893516,"ECCENTRICITY":0.0001471,"INCLINATION":42.9999,"RA_OF_ASC_NODE":169.8073,"ARG_OF_PERICENTER":261.835,"MEAN_ANOMALY":98.2351,"EPHEMERIS_TYPE":0,"CLASSIFICATION_TYPE":"U","NORAD_CAT_ID":62411,"ELEMENT_SET_NO":999,"REV_AT_EPOCH":6942,"BSTAR":0.0011953483,"MEAN_MOTION_DOT":0.00156197,"MEAN_MOTION_DDOT":0},{"OBJECT_NAME":"FLOCK 4BE-16","OBJECT_ID":"2024-149R","EPOCH":"2026-03-09T18:09:47.863872","MEAN_MOTION":15.69331853,"ECCENTRICITY":0.0006629,"INCLINATION":97.3709,"RA_OF_ASC_NODE":154.3606,"ARG_OF_PERICENTER":231.2674,"MEAN_ANOMALY":128.7996,"EPHEMERIS_TYPE":0,"CLASSIFICATION_TYPE":"U","NORAD_CAT_ID":60483,"ELEMENT_SET_NO":999,"REV_AT_EPOCH":8717,"BSTAR":0.0016709449,"MEAN_MOTION_DOT":0.00199478,"MEAN_MOTION_DDOT":0}]
